0 CZ-4B R/B
1 29093U 06015B   16011.49375296  .00005439  00000-0  15030-3 0  9992
2 29093  97.4875 106.2688 0073475  32.3266 328.2448 15.34754379537211
0 SL-3 R/B
1 16111U 85090B   16011.47592457  .00008457  00000-0  17630-3 0  9998
2 16111  97.3580 106.7384 0020517 123.4916 236.8298 15.45598854663359
0 CZ-4C R/B
1 39261U 13052B   16011.18890574  .00000034  00000-0  28702-4 0  9993
2 39261  98.7706 107.1753 0032992  94.8693 265.6259 14.33062576120294
0 TAURUS R/B
1 28255U 04018B   16011.20025414  .00000069  00000-0  30951-4 0  9999
2 28255  99.0740 108.4243 0015357 172.9605 242.7085 14.50063203615853
0 CZ-2C R/B
1 40262U 14059B   16011.20371308  .00000227  00000-0  45175-4 0  9993
2 40262  98.1501 109.4934 0046498  34.0101 326.4070 14.70699722 69060